SPACEBEE-84             
1 47706U 21015H   22314.18244588  .00165871  00000+0  21288-2 0  9995
2 47706  97.3972  34.2946 0006835 262.7918  97.2561 15.58543807 94759
SPACEBEE-83             
1 47707U 21015J   22313.17577301  .00249702  00000+0  30041-2 0  9999
2 47707  97.3946  33.3107 0008261 268.3863  91.6447 15.59969628 94605
SPACEBEE-82             
1 47708U 21015K   22313.97680094  .00269898  00000+0  29095-2 0  9997
2 47708  97.3956  34.5251 0007012 262.8576  97.1885 15.62780063 94754
SPACEBEE-81             
1 47709U 21015L   22313.18455391  .00277218  00000+0  28656-2 0  9998
2 47709  97.3959  33.9289 0006301 259.3028 100.7522 15.63840196 94568
SPACEBEE-78             
1 47710U 21015M   22313.48464238  .00488097  00000+0  36620-2 0  9992
2 47710  97.3932  34.7443 0009570 276.1136  83.9036 15.71139090 94723
SPACEBEE-76             
1 47711U 21015N   22313.97393355  .00837570  00000+0  42375-2 0  9996
2 47711  97.3900  35.9001 0007917 267.5879  92.4482 15.79350307 94840
SPACEBEE-80             
1 47712U 21015P   22314.18142774  .00309904  00000+0  27389-2 0  9991
2 47712  97.3965  35.1945 0007710 267.3379  92.7000 15.67675890 94815
SPACEBEE-77             
1 47714U 21015Q   22313.96586719  .00718756  00000+0  37868-2 0  9991
2 47714  97.3923  35.7868 0009173 277.0938  82.9285 15.78740290 94753
SPACEBEE-79             
1 47715U 21015R   22314.15902680  .00289899  00000+0  27199-2 0  9990
2 47715  97.4002  35.1860 0006557 252.8013 107.2529 15.66254739 94800
SPACEBEE-65             
1 48626U 21006ES  22313.36399570  .00059056  00000+0  18761-2 0  9997
2 48626  97.1897 356.7075 0012050 102.0635 258.1958 15.32360735 99514
SPACEBEE-64             
1 48627U 21006ET  22313.85638341  .00057576  00000+0  18068-2 0  9999
2 48627  97.1899 357.2534 0011897  99.5305 260.7283 15.32761862 99599
SPACEBEE-66             
1 48628U 21006EU  22313.62401318  .00058904  00000+0  19113-2 0  9995
2 48628  97.1896 356.8101 0012092 101.0869 259.1733 15.31681583 99541
SPACEBEE-67             
1 48629U 21006EV  22314.10555982  .00051699  00000+0  16918-2 0  9991
2 48629  97.1894 357.2218 0012221 100.0816 260.1805 15.31442592 99614
SPACEBEE-68             
1 48630U 21006EW  22313.87484276  .00051000  00000+0  16844-2 0  9997
2 48630  97.1899 356.9301 0012392 100.5912 259.6726 15.31146261 99575
SPACEBEE-69             
1 48631U 21006EX  22313.57912794  .00054694  00000+0  18253-2 0  9994
2 48631  97.1900 356.5799 0012749 101.8852 258.3820 15.30786913 99528
SPACEBEE-70             
1 48632U 21006EY  22313.87410271  .00048073  00000+0  16169-2 0  9999
2 48632  97.1899 356.7884 0012766 101.3449 258.9227 15.30567824 99568
SPACEBEE-71             
1 48633U 21006EZ  22313.85114974  .00047619  00000+0  16184-2 0  9991
2 48633  97.1898 356.6654 0013064 101.7294 258.5414 15.30229320 99555
SPACEBEE-72             
1 48634U 21006FA  22313.84938676  .00045078  00000+0  15584-2 0  9994
2 48634  97.1903 356.5266 0013241 102.0709 258.2016 15.29685793 99545
SPACEBEE-73             
1 48635U 21006FB  22313.62080469  .00048583  00000+0  16933-2 0  9992
2 48635  97.1897 356.2329 0013371 103.3552 256.9180 15.29400075 99500
SPACEBEE-74             
1 48636U 21006FC  22313.37703944  .00045130  00000+0  16101-2 0  9997
2 48636  97.1904 355.8104 0013885 104.4257 255.8526 15.28648537 99452
SPACEBEE-75             
1 48637U 21006FD  22313.56349573  .00045740  00000+0  16523-2 0  9998
2 48637  97.1907 355.8600 0014200 103.8435 256.4386 15.28232355 99470
SPACEBEENZ-10           
1 48882U 21059D   22313.86031814  .00028402  00000+0  12181-2 0  9999
2 48882  97.5694  83.9062 0007171 320.3566  39.7145 15.22676331 76032
SPACEBEE-100            
1 48883U 21059E   22313.84844616  .00017355  00000+0  83297-3 0  9992
2 48883  97.5733  83.0942 0007631 322.7465  37.3239 15.18910090 75978
SPACEBEE-101            
1 48884U 21059F   22313.87044381  .00016739  00000+0  80879-3 0  9995
2 48884  97.5733  83.0753 0007457 327.0356  33.0412 15.18685782 75975
SPACEBEE-102            
1 48886U 21059H   22313.85612673  .00016970  00000+0  81930-3 0  9996
2 48886  97.5730  83.0933 0007181 326.1529  33.9245 15.18713167 75972
SPACEBEENZ-9            
1 48887U 21059J   22313.86145295  .00028140  00000+0  12068-2 0  9996
2 48887  97.5690  83.8989 0007077 321.1278  38.9449 15.22680955 76039
SPACEBEE-103            
1 48888U 21059K   22313.87510636  .00015965  00000+0  76336-3 0  9993
2 48888  97.5737  83.2309 0007487 323.5031  36.5691 15.19060438 75980
SPACEBEENZ-7            
1 48889U 21059L   22313.87923807  .00027617  00000+0  11772-2 0  9991
2 48889  97.5712  84.1600 0007499 321.4284  38.6415 15.22888338 76044
SPACEBEE-104            
1 48890U 21059M   22314.09780342  .00017870  00000+0  85104-3 0  9994
2 48890  97.5736  83.3613 0007547 326.5134  33.5622 15.19173490 76014
SPACEBEENZ-8            
1 48891U 21059N   22313.88948982  .00026833  00000+0  11494-2 0  9996
2 48891  97.5716  84.1480 0007524 321.6699  38.4001 15.22727066 76047
SPACEBEE-106            
1 48893U 21059Q   22313.87898913  .00015804  00000+0  75955-3 0  9994
2 48893  97.5756  83.3455 0007922 326.3872  33.6859 15.18881262 75987
SPACEBEE-107            
1 48894U 21059R   22313.87938468  .00017156  00000+0  80899-3 0  9990
2 48894  97.5760  83.5062 0007824 324.8258  35.2459 15.19523722 75991
SPACEBEE-108            
1 48895U 21059S   22313.34940371  .00018033  00000+0  86658-3 0  9993
2 48895  97.5750  82.7970 0008099 327.8227  32.2511 15.18856202 75902
SPACEBEE-105            
1 48896U 21059T   22313.85747072  .00017583  00000+0  83977-3 0  9993
2 48896  97.5734  83.0657 0007671 315.6852  44.3767 15.19077016 75978
SPACEBEE-109            
1 48897U 21059U   22314.09762724  .00018045  00000+0  85551-3 0  9996
2 48897  97.5757  83.6433 0008150 323.1900  36.8774 15.19325307 76023
SPACEBEE-110            
1 48899U 21059W   22313.88911069  .00016898  00000+0  79484-3 0  9994
2 48899  97.5761  83.6482 0008252 321.5905  38.4741 15.19610651 76003
SPACEBEE-111            
1 48904U 21059AB  22313.86064069  .00018147  00000+0  84123-3 0  9993
2 48904  97.5765  83.8820 0009156 320.1253  39.9308 15.20093487 76017
SPACEBEE-92             
1 48932U 21059BF  22313.92687799  .00079114  00000+0  22550-2 0  9998
2 48932  97.5572  87.3474 0012671 302.5134  57.4884 15.35698164 76299
SPACEBEE-89             
1 48933U 21059BG  22314.09761785  .00088110  00000+0  23485-2 0  9990
2 48933  97.5569  87.8626 0012381 299.2870  60.7136 15.37751903 76343
SPACEBEE-96             
1 48934U 21059BH  22313.84285003  .00068401  00000+0  20365-2 0  9992
2 48934  97.5586  87.0185 0012869 303.8773  56.1245 15.34371391 76267
SPACEBEE-88             
1 48935U 21059BJ  22313.86694261  .00091970  00000+0  23974-2 0  9991
2 48935  97.5549  87.6735 0012781 300.3006  59.6974 15.38417750 76315
SPACEBEE-99             
1 48936U 21059BK  22313.87843198  .00060471  00000+0  18794-2 0  9994
2 48936  97.5589  86.8418 0012805 305.2682  54.7361 15.33045883 76258
SPACEBEE-94             
1 48937U 21059BL  22313.84347003  .00073470  00000+0  21316-2 0  9993
2 48937  97.5574  87.1337 0012745 303.5449  56.4576 15.35165149 76271
SPACEBEE-93             
1 48939U 21059BN  22313.88972126  .00087550  00000+0  23606-2 0  9997
2 48939  97.5560  87.5233 0012989 300.3732  59.6228 15.37389803 76307
SPACEBEE-91             
1 48940U 21059BP  22313.87854075  .00083608  00000+0  22679-2 0  9999
2 48940  97.5563  87.5471 0012969 301.3458  58.6516 15.37220685 76301
SPACEBEE-95             
1 48945U 21059BU  22313.87251647  .00073450  00000+0  21055-2 0  9991
2 48945  97.5583  87.2889 0012854 302.0686  57.9308 15.35542881 76283
SPACEBEE-97             
1 48946U 21059BV  22313.82328644  .00071990  00000+0  21976-2 0  9998
2 48946  97.5587  86.8973 0012599 305.2843  54.7219 15.33565544 76255
SPACEBEE-90             
1 48947U 21059BW  22313.85847673  .00086094  00000+0  23192-2 0  9993
2 48947  97.5561  87.5675 0012467 299.9916  60.0090 15.37431333 76304
SPACEBEE-98             
1 48949U 21059BY  22313.88070684  .00061516  00000+0  18730-2 0  9992
2 48949  97.5615  87.0240 0013220 303.3052  56.6924 15.33689336 76264
SPACEBEE-121            
1 52009U 22026B   22313.89363358  .00017371  00000+0  83598-3 0  9998
2 52009  97.5060 312.2551 0027417 125.9144 234.4640 15.18500668 36238
SPACEBEE-114            
1 52010U 22026C   22314.00756234  .00017539  00000+0  83779-3 0  9990
2 52010  97.5086 312.4746 0026612 126.8847 233.4832 15.18777850 36266
SPACEBEE-126            
1 52011U 22026D   22313.81542397  .00019560  00000+0  93377-3 0  9993
2 52011  97.5073 312.2270 0027103 125.3179 235.0595 15.18762477 36220
SPACEBEE-118            
1 52012U 22026E   22313.89377388  .00017927  00000+0  84747-3 0  9994
2 52012  97.5076 312.4557 0025831 128.9334 231.4209 15.19151989 36258
SPACEBEE-120            
1 52013U 22026F   22313.52245245  .00019438  00000+0  92456-3 0  9996
2 52013  97.5072 312.0002 0028170 124.1952 236.1958 15.18864489 36189
SPACEBEE-122            
1 52014U 22026G   22313.58419879  .00018603  00000+0  88329-3 0  9996
2 52014  97.5069 312.0756 0026880 126.2522 234.1202 15.18966826 36193
SPACEBEE-119            
1 52015U 22026H   22313.88974472  .00017964  00000+0  86423-3 0  9997
2 52015  97.5078 312.3142 0027660 126.1480 234.2319 15.18500373 36231
SPACEBEE-115            
1 52016U 22026J   22313.99061227  .00016375  00000+0  78144-3 0  9991
2 52016  97.5084 312.4937 0027327 125.5483 234.8305 15.18808568 36258
SPACEBEENZ-14           
1 52018U 22026L   22313.50194204  .00024086  00000+0  11033-2 0  9993
2 52018  97.5072 312.2035 0026713 126.0764 234.2950 15.20154838 36190
SPACEBEENZ-11           
1 52019U 22026M   22313.74640994  .00025710  00000+0  11666-2 0  9999
2 52019  97.5071 312.4873 0026657 124.6566 235.7187 15.20467434 36190
SPACEBEE-127            
1 52020U 22026N   22314.00367683  .00016522  00000+0  79211-3 0  9994
2 52020  97.5074 312.4396 0027277 125.2735 235.1057 15.18647897 36201
